CSS (TIANHE)            
1 48274U 21035A   24073.74440444  .00037067  00000+0  39754-3 0  9996
2 48274  41.4673 306.4303 0008814 167.0950 193.0117 15.63023514164159
